STARLINK-4598           
1 53630U 22104AU  26176.98826961 -.00000604  00000+0 -19824-4 0  9996
2 53630  53.1599  97.8779 0001523  82.8615 277.2549 15.08834594212412
STARLINK-4606           
1 53632U 22104AW  26176.97994094 -.00000197  00000+0  57333-5 0  9994
2 53632  53.1610  97.8260 0001473  82.5542 277.5617 15.08821671212571
STARLINK-4593           
1 53633U 22104AX  26176.98363735  .00002884  00000+0  19921-3 0  9991
2 53633  53.1597  97.8496 0002131  81.7279 278.3954 15.08844298212244
STARLINK-4396           
1 53637U 22104BB  26176.99932000 -.00000297  00000+0 -59165-6 0  9998
2 53637  53.1620  97.9351 0001452  97.1329 262.9828 15.08833635212576
STARLINK-4629           
1 53968U 22125E   26176.99465183 -.00000111  00000+0  11131-4 0  9994
2 53968  53.1606  97.6911 0001420  87.6004 272.5150 15.08832607205671
STARLINK-5156           
1 53973U 22125K   26176.99096690 -.00000104  00000+0  11569-4 0  9990
2 53973  53.1614  97.6689 0001521  96.7010 263.4155 15.08834223205678
