{
  "schema": "int-temerity-real-tle-snapshot/v1",
  "source": "celestrak",
  "group": "STARLINK",
  "format": "celestrak-gp-json",
  "source_url": "https://celestrak.org/NORAD/elements/gp.php?NAME=STARLINK&FORMAT=JSON",
  "downloaded_at": "2026-07-01T09:46:17.455Z",
  "generated_at": "2026-07-01T09:46:17.588Z",
  "fingerprint": "ee699b79",
  "shell_id": "starlink-real-53.2deg-545km",
  "catalog_count": 10658,
  "shell_count": 1056,
  "selected_count": 658,
  "mean_altitude_km": 545.46,
  "mean_inclination_deg": 53.1605,
  "mean_mean_motion_rev_per_day": 15.09305652,
  "layout": {
    "planes": 47,
    "satellites_per_plane": 14,
    "selection_strategy": "target-shell-raan-clusters-even-slot-sampling",
    "raan_cluster_threshold_deg": 1.5,
    "target_inclination_deg": 53,
    "target_altitude_km": 550,
    "selected_shell_key": "53.0deg-550km",
    "target_shell_distance": 21.03
  },
  "satellites": [
    {
      "satellite_id": "P15-S09",
      "norad_id": 53968,
      "satellite_name": "STARLINK-4629",
      "cospar_id": "2022-125E",
      "shell_id": "starlink-real-53.2deg-545km",
      "plane_id": 14,
      "slot_id": 8,
      "epoch": "2026-06-25T23:52:17.918112",
      "inclination": 53.1606,
      "raan": 97.6911,
      "eccentricity": 0.000142,
      "argument_of_perigee": 87.60039999999998,
      "mean_anomaly": 272.515,
      "mean_motion": 15.08832607,
      "bstar": 0.000011131,
      "status": "active",
      "raw_omm": {
        "OBJECT_NAME": "STARLINK-4629",
        "OBJECT_ID": "2022-125E",
        "EPOCH": "2026-06-25T23:52:17.918112",
        "MEAN_MOTION": 15.08832607,
        "ECCENTRICITY": 0.000142,
        "INCLINATION": 53.1606,
        "RA_OF_ASC_NODE": 97.6911,
        "ARG_OF_PERICENTER": 87.6004,
        "MEAN_ANOMALY": 272.515,
        "EPHEMERIS_TYPE": 0,
        "CLASSIFICATION_TYPE": "U",
        "NORAD_CAT_ID": 53968,
        "ELEMENT_SET_NO": 999,
        "REV_AT_EPOCH": 20567,
        "BSTAR": 0.000011131,
        "MEAN_MOTION_DOT": -0.00000111,
        "MEAN_MOTION_DDOT": 0
      },
      "source": "celestrak",
      "source_url": "https://celestrak.org/NORAD/elements/gp.php?NAME=STARLINK&FORMAT=JSON",
      "catalog_fingerprint": "ee699b79"
    },
    {
      "satellite_id": "P15-S10",
      "norad_id": 53637,
      "satellite_name": "STARLINK-4396",
      "cospar_id": "2022-104BB",
      "shell_id": "starlink-real-53.2deg-545km",
      "plane_id": 14,
      "slot_id": 9,
      "epoch": "2026-06-25T23:59:01.248000",
      "inclination": 53.162,
      "raan": 97.93510000000003,
      "eccentricity": 0.0001452,
      "argument_of_perigee": 97.1329,
      "mean_anomaly": 262.9828,
      "mean_motion": 15.08833635,
      "bstar": -5.9165e-7,
      "status": "active",
      "raw_omm": {
        "OBJECT_NAME": "STARLINK-4396",
        "OBJECT_ID": "2022-104BB",
        "EPOCH": "2026-06-25T23:59:01.248000",
        "MEAN_MOTION": 15.08833635,
        "ECCENTRICITY": 0.0001452,
        "INCLINATION": 53.162,
        "RA_OF_ASC_NODE": 97.9351,
        "ARG_OF_PERICENTER": 97.1329,
        "MEAN_ANOMALY": 262.9828,
        "EPHEMERIS_TYPE": 0,
        "CLASSIFICATION_TYPE": "U",
        "NORAD_CAT_ID": 53637,
        "ELEMENT_SET_NO": 999,
        "REV_AT_EPOCH": 21257,
        "BSTAR": -5.9165e-7,
        "MEAN_MOTION_DOT": -0.00000297,
        "MEAN_MOTION_DDOT": 0
      },
      "source": "celestrak",
      "source_url": "https://celestrak.org/NORAD/elements/gp.php?NAME=STARLINK&FORMAT=JSON",
      "catalog_fingerprint": "ee699b79"
    },
    {
      "satellite_id": "P15-S11",
      "norad_id": 53632,
      "satellite_name": "STARLINK-4606",
      "cospar_id": "2022-104AW",
      "shell_id": "starlink-real-53.2deg-545km",
      "plane_id": 14,
      "slot_id": 10,
      "epoch": "2026-06-25T23:31:06.897216",
      "inclination": 53.161,
      "raan": 97.82600000000002,
      "eccentricity": 0.0001473,
      "argument_of_perigee": 82.55419999999998,
      "mean_anomaly": 277.5617,
      "mean_motion": 15.08821671,
      "bstar": 0.0000057333,
      "status": "active",
      "raw_omm": {
        "OBJECT_NAME": "STARLINK-4606",
        "OBJECT_ID": "2022-104AW",
        "EPOCH": "2026-06-25T23:31:06.897216",
        "MEAN_MOTION": 15.08821671,
        "ECCENTRICITY": 0.0001473,
        "INCLINATION": 53.161,
        "RA_OF_ASC_NODE": 97.826,
        "ARG_OF_PERICENTER": 82.5542,
        "MEAN_ANOMALY": 277.5617,
        "EPHEMERIS_TYPE": 0,
        "CLASSIFICATION_TYPE": "U",
        "NORAD_CAT_ID": 53632,
        "ELEMENT_SET_NO": 999,
        "REV_AT_EPOCH": 21257,
        "BSTAR": 0.0000057333,
        "MEAN_MOTION_DOT": -0.00000197,
        "MEAN_MOTION_DDOT": 0
      },
      "source": "celestrak",
      "source_url": "https://celestrak.org/NORAD/elements/gp.php?NAME=STARLINK&FORMAT=JSON",
      "catalog_fingerprint": "ee699b79"
    },
    {
      "satellite_id": "P15-S12",
      "norad_id": 53630,
      "satellite_name": "STARLINK-4598",
      "cospar_id": "2022-104AU",
      "shell_id": "starlink-real-53.2deg-545km",
      "plane_id": 14,
      "slot_id": 11,
      "epoch": "2026-06-25T23:43:06.494304",
      "inclination": 53.1599,
      "raan": 97.87790000000001,
      "eccentricity": 0.0001523,
      "argument_of_perigee": 82.86149999999998,
      "mean_anomaly": 277.2549,
      "mean_motion": 15.08834594,
      "bstar": -0.000019824,
      "status": "active",
      "raw_omm": {
        "OBJECT_NAME": "STARLINK-4598",
        "OBJECT_ID": "2022-104AU",
        "EPOCH": "2026-06-25T23:43:06.494304",
        "MEAN_MOTION": 15.08834594,
        "ECCENTRICITY": 0.0001523,
        "INCLINATION": 53.1599,
        "RA_OF_ASC_NODE": 97.8779,
        "ARG_OF_PERICENTER": 82.8615,
        "MEAN_ANOMALY": 277.2549,
        "EPHEMERIS_TYPE": 0,
        "CLASSIFICATION_TYPE": "U",
        "NORAD_CAT_ID": 53630,
        "ELEMENT_SET_NO": 999,
        "REV_AT_EPOCH": 21241,
        "BSTAR": -0.000019824,
        "MEAN_MOTION_DOT": -0.00000604,
        "MEAN_MOTION_DDOT": 0
      },
      "source": "celestrak",
      "source_url": "https://celestrak.org/NORAD/elements/gp.php?NAME=STARLINK&FORMAT=JSON",
      "catalog_fingerprint": "ee699b79"
    },
    {
      "satellite_id": "P15-S13",
      "norad_id": 53973,
      "satellite_name": "STARLINK-5156",
      "cospar_id": "2022-125K",
      "shell_id": "starlink-real-53.2deg-545km",
      "plane_id": 14,
      "slot_id": 12,
      "epoch": "2026-06-25T23:46:59.540160",
      "inclination": 53.1614,
      "raan": 97.66890000000001,
      "eccentricity": 0.0001521,
      "argument_of_perigee": 96.70100000000002,
      "mean_anomaly": 263.41550000000007,
      "mean_motion": 15.08834223,
      "bstar": 0.000011569,
      "status": "active",
      "raw_omm": {
        "OBJECT_NAME": "STARLINK-5156",
        "OBJECT_ID": "2022-125K",
        "EPOCH": "2026-06-25T23:46:59.540160",
        "MEAN_MOTION": 15.08834223,
        "ECCENTRICITY": 0.0001521,
        "INCLINATION": 53.1614,
        "RA_OF_ASC_NODE": 97.6689,
        "ARG_OF_PERICENTER": 96.701,
        "MEAN_ANOMALY": 263.4155,
        "EPHEMERIS_TYPE": 0,
        "CLASSIFICATION_TYPE": "U",
        "NORAD_CAT_ID": 53973,
        "ELEMENT_SET_NO": 999,
        "REV_AT_EPOCH": 20567,
        "BSTAR": 0.000011569,
        "MEAN_MOTION_DOT": -0.00000104,
        "MEAN_MOTION_DDOT": 0
      },
      "source": "celestrak",
      "source_url": "https://celestrak.org/NORAD/elements/gp.php?NAME=STARLINK&FORMAT=JSON",
      "catalog_fingerprint": "ee699b79"
    },
    {
      "satellite_id": "P15-S14",
      "norad_id": 53633,
      "satellite_name": "STARLINK-4593",
      "cospar_id": "2022-104AX",
      "shell_id": "starlink-real-53.2deg-545km",
      "plane_id": 14,
      "slot_id": 13,
      "epoch": "2026-06-25T23:36:26.267040",
      "inclination": 53.1597,
      "raan": 97.84960000000001,
      "eccentricity": 0.0002131,
      "argument_of_perigee": 81.72789999999998,
      "mean_anomaly": 278.3954,
      "mean_motion": 15.08844298,
      "bstar": 0.00019921,
      "status": "active",
      "raw_omm": {
        "OBJECT_NAME": "STARLINK-4593",
        "OBJECT_ID": "2022-104AX",
        "EPOCH": "2026-06-25T23:36:26.267040",
        "MEAN_MOTION": 15.08844298,
        "ECCENTRICITY": 0.0002131,
        "INCLINATION": 53.1597,
        "RA_OF_ASC_NODE": 97.8496,
        "ARG_OF_PERICENTER": 81.7279,
        "MEAN_ANOMALY": 278.3954,
        "EPHEMERIS_TYPE": 0,
        "CLASSIFICATION_TYPE": "U",
        "NORAD_CAT_ID": 53633,
        "ELEMENT_SET_NO": 999,
        "REV_AT_EPOCH": 21224,
        "BSTAR": 0.00019921,
        "MEAN_MOTION_DOT": 0.00002884,
        "MEAN_MOTION_DDOT": 0
      },
      "source": "celestrak",
      "source_url": "https://celestrak.org/NORAD/elements/gp.php?NAME=STARLINK&FORMAT=JSON",
      "catalog_fingerprint": "ee699b79"
    }
  ]
}